MUOS-4                  
1 40887U 15044A   21364.51860745 -.00000079  00000+0  00000+0 0  9998
2 40887   2.5701   1.2091 0055284 356.5843   3.0777  1.00271217 23218
TJS-1                   
1 40892U 15046A   21364.56928744 -.00000140  00000+0  00000+0 0  9994
2 40892   0.0365 107.0788 0004339 242.1459 109.9479  1.00269511 23229
EXPRESS-AM8             
1 40895U 15048A   21364.42903424 -.00000095  00000+0  00000+0 0  9991
2 40895   0.0353 232.6317 0000076 302.6430  64.2509  1.00270875 23038
BEIDOU 20               
1 40938U 15053A   21364.21411473 -.00000143  00000+0  00000+0 0  9994
2 40938  51.7637 277.8213 0042821 195.4096 158.2267  1.00284077 23001
SKY MUSTER 1 (NBN1A)    
1 40940U 15054A   21364.53160299 -.00000262  00000+0  00000+0 0  9992
2 40940   0.0170 344.2225 0001596 294.8530 151.7369  1.00270516 22919
ARSAT 2                 
1 40941U 15054B   21364.48747051 -.00000208  00000+0  00000+0 0  9994
2 40941   0.0082 340.5859 0001459 290.4936 282.5651  1.00271034 22984
MORELOS 3               
1 40946U 15056A   21364.55901979 -.00000025  00000+0  00000+0 0  9997
2 40946   3.9587 332.6234 0002259 356.2727 218.4457  1.00270617 22942
APSTAR 9                
1 40982U 15059A   21364.38839050 -.00000250  00000+0  00000+0 0  9991
2 40982   0.0482  97.8390 0001270 150.7814 132.2235  1.00269157 22813
TURKSAT 4B              
1 40984U 15060A   21364.51363601  .00000131  00000+0  00000+0 0  9991
2 40984   0.0177   9.8974 0002004 270.9827  53.1605  1.00269924 22760
CHINASAT 2C (ZX 2C)     
1 41021U 15063A   21364.59605730 -.00000308  00000+0  00000+0 0  9994
2 41021   0.0374 238.0751 0001252  95.7165  83.4638  1.00270846 22670
GSAT-15                 
1 41028U 15065A   21364.54424488 -.00000242  00000+0  00000+0 0  9994
2 41028   0.0793 101.5114 0001138 157.1219 129.9725  1.00271456 22463
BADR-7 (ARABSAT-6B)     
1 41029U 15065B   21364.50883900  .00000161  00000+0  00000+0 0  9998
2 41029   0.0448 230.6785 0004790  16.1972  61.4478  1.00271278 22429
LAOSAT 1                
1 41034U 15067A   21364.52898642 -.00000327  00000+0  00000+0 0  9992
2 41034   0.0489 213.6877 0002161  18.5756 185.8436  1.00273466 22515
TELSTAR 12V             
1 41036U 15068A   21364.42885980 -.00000102  00000+0  00000+0 0  9996
2 41036   0.0158 337.1557 0001797 306.1346 315.1873  1.00269712 22288
CHINASAT 1C (ZX 1C)     
1 41103U 15073A   21364.51991572 -.00000136  00000+0  00000+0 0  9999
2 41103   2.9728  87.0445 0001303 125.6253 155.0531  1.00270436 22319
ELEKTRO-L 2             
1 41105U 15074A   21364.42894703 -.00000101  00000+0  00000+0 0  9992
2 41105   2.5651  90.1116 0001993 139.0241   9.9011  1.00272308 22177
COSMOS 2513             
1 41121U 15075A   21364.44787340 -.00000122  00000+0  00000+0 0  9994
2 41121   0.0749 109.3110 0003031 158.9176  72.3620  1.00272186 22180
EXPRESS-AMU1            
1 41191U 15082A   21364.51084503  .00000172  00000+0  00000+0 0  9992
2 41191   0.0034  86.1831 0002245 188.8369  44.1276  1.00271151 21935
GAOFEN 4                
1 41194U 15083A   21364.52471273 -.00000319  00000+0  00000+0 0  9995
2 41194   0.0686  88.3542 0002537 122.9283 182.5105  1.00271943 22176
BELINTERSAT-1           
1 41238U 16001A   21364.51389766  .00000123  00000+0  00000+0 0  9991
2 41238   0.0049 116.6306 0001475  87.9121 131.1369  1.00269380 21917
IRNSS-1E                
1 41241U 16003A   21363.66463302 -.00000302  00000+0  00000+0 0  9991
2 41241  29.6022  87.2729 0022501 186.9701 175.1371  1.00269801 21737
EUTELSAT 9B             
1 41310U 16005A   21364.36187615  .00000078  00000+0  00000+0 0  9997
2 41310   0.0306  46.8128 0005811 226.0967 325.3953  1.00268532 21770
SES-9                   
1 41380U 16013A   21364.44808309 -.00000329  00000+0  00000+0 0  9992
2 41380   0.0332 295.0994 0000406 105.0339 328.5808  1.00270440 21099
EUTELSAT 65 WEST A      
1 41382U 16014A   21364.49029271 -.00000260  00000+0  00000+0 0  9997
2 41382   0.0478  16.5615 0002010 264.0277 289.8746  1.00270127 21203
IRNSS-1F                
1 41384U 16015A   21364.22302457  .00000178  00000+0  00000+0 0  9998
2 41384   2.0175 170.4686 0019948 182.4590 218.6913  1.00276358 21329
BEIDOU IGSO-6           
1 41434U 16021A   21364.53047853 -.00000170  00000+0  00000+0 0  9994
2 41434  57.8499  54.5919 0045102 215.9613 115.6078  1.00274769 21133
IRNSS-1G                
1 41469U 16027A   21364.44855549 -.00000317  00000+0  00000+0 0  9990
2 41469   1.9697 173.7258 0003074 254.3719 321.9925  1.00273916 20839
JCSAT-2B                
1 41471U 16028A   21364.56928750 -.00000150  00000+0  00000+0 0  9997
2 41471   0.0173  12.7928 0001746 267.4023 177.9577  1.00269497 20789
THAICOM 8               
1 41552U 16031A   21364.51930521 -.00000105  00000+0  00000+0 0  9995
2 41552   0.1140  87.7646 0003011 235.6964  41.1835  1.00270998 20373
INTELSAT 31 (IS-31)     
1 41581U 16035A   21364.49393154 -.00000134  00000+0  00000+0 0  9995
2 41581   0.0165 284.1959 0002134 270.5045 347.2025  1.00269940 20358
BEIDOU-2 G7             
1 41586U 16037A   21364.52567213 -.00000339  00000+0  00000+0 0  9992
2 41586   1.6041  66.5254 0008334   3.7983 328.4978  1.00277525 20444
ABS-2A (MONGOLSAT-1)    
1 41588U 16038A   21364.51852024 -.00000067  00000+0  00000+0 0  9999
2 41588   0.0217  20.0242 0001180 175.3090 165.2062  1.00268640 20352
EUTELSAT 117 WEST B     
1 41589U 16038B   21364.55662690  .00000004  00000+0  00000+0 0  9992
2 41589   0.0098 169.0271 0000482  99.7074 273.8554  1.00277318 20333
BRISAT                  
1 41591U 16039A   21364.56596427 -.00000182  00000+0  00000+0 0  9999
2 41591   0.0215   1.7962 0001883 286.9607 164.7006  1.00264328 20285
ECHOSTAR 18             
1 41592U 16039B   21364.49270521 -.00000265  00000+0  00000+0 0  9998
2 41592   0.0028  90.2482 0001300 185.0166 299.9141  1.00271168 20282
MUOS-5                  
1 41622U 16041A   21364.55466546 -.00000095  00000+0  00000+0 0  9997
2 41622   6.0042 302.2750 0197681 232.8357  18.7926  1.00270313 20743
TIANTONG-1 1            
1 41725U 16048A   21364.52384054 -.00000301  00000+0  00000+0 0  9998
2 41725   2.3706 350.8953 0004719 328.7628  69.5180  1.00269259 19934
JCSAT-16                
1 41729U 16050A   21364.47129611 -.00000289  00000+0  00000+0 0  9990
2 41729   0.0802  88.7753 0000653   7.4889 312.6035  1.00081395 19729
USA 271                 
1 41745U 16052B   21362.44556334 -.00000343  00000+0  00000+0 0  9992
2 41745   0.0874 104.8295 0011364  50.8804 217.8705  1.00409681  2383
INTELSAT 36 (IS-36)     
1 41747U 16053A   21364.44551851 -.00000007  00000+0  00000+0 0  9993
2 41747   0.0103   5.4049 0001017   0.9852 321.6166  1.00267381 19603
INTELSAT 33E (IS-33E)   
1 41748U 16053B   21364.51564203  .00000065  00000+0  00000+0 0  9990
2 41748   0.0219  12.7135 0001556 265.2468  66.8356  1.00269807 19903
INSAT-3DR               
1 41752U 16054A   21364.51843302 -.00000061  00000+0  00000+0 0  9993
2 41752   0.1271  97.4978 0013007 173.9985  88.2970  1.00270767 19474
GSAT-18                 
1 41793U 16060A   21364.51843302 -.00000061  00000+0  00000+0 0  9995
2 41793   0.0553 100.5548 0001404 201.0717  58.1810  1.00272995 19197
SKY MUSTER 2 (NBN1B)    
1 41794U 16060B   21364.56144083 -.00000228  00000+0  00000+0 0  9996
2 41794   0.0169 340.8359 0001065 299.1314 166.1689  1.00270241 19189
HIMAWARI-9              
1 41836U 16064A   21364.46712326 -.00000259  00000+0  00000+0 0  9991
2 41836   0.0172 102.0093 0000399 209.3356  96.7075  1.00270406 18843
SHIJIAN-17 (SJ-17)      
1 41838U 16065A   21364.62380998 -.00000348  00000+0  00000+0 0  9997
2 41838   1.6059  91.2601 0001166 306.2448  43.8909  1.00272278 18862
GOES 16                 
1 41866U 16071A   21364.50806466 -.00000232  00000+0  00000+0 0  9997
2 41866   0.0790 246.6714 0000741  81.5087 238.6993  1.00272053 18777
TIANLIAN 1-04           
1 41869U 16072A   21364.48640659  .00000047  00000+0  00000+0 0  9991
2 41869   0.1827 263.9156 0019303 215.4280 331.6975  1.00268641 18975
WGS F8 (USA 272)        
1 41879U 16075A   21364.56596403 -.00000186  00000+0  00000+0 0  9996
2 41879   0.0145  62.9052 0000321 310.9740  78.8950  1.00271502 18492
FENGYUN 4A              
1 41882U 16077A   21364.59623175 -.00000313  00000+0  00000+0 0  9994
2 41882   0.0224 346.5577 0006136  63.6938   8.1922  1.00265998 18642
ECHOSTAR 19             
1 41893U 16079A   21364.55997137 -.00000122  00000+0  00000+0 0  9994
2 41893   0.0043  82.5658 0001290 207.0744 274.0488  1.00270315 18375
JCSAT-15                
1 41903U 16082A   21364.52558491 -.00000335  00000+0  00000+0 0  9999
2 41903   0.0165   3.8641 0001206 281.1186 113.4719  1.00270749 18419
STAR ONE D1             
1 41904U 16082B   21364.50135296 -.00000194  00000+0  00000+0 0  9995
2 41904   0.0225  69.1512 0002128 217.0271 269.4527  1.00273284 18434
TJS-2                   
1 41911U 17001A   21364.51686308  .00000011  00000+0  00000+0 0  9998
2 41911   0.0698 308.2546 0004018 243.4324 160.0326  1.00269176 18384
SBIRS GEO-4 (USA 273)   
1 41937U 17004A   21364.52746872  .00000148  00000+0  00000+0 0  9994
2 41937   2.6685 315.9285 0002004 315.9037 217.8424  1.00271553 18269
HISPASAT 36W-1          
1 41942U 17006A   21364.49645400 -.00000228  00000+0  00000+0 0  9993
2 41942   0.0093 297.3613 0001124 341.5613 322.9607  1.00271166 17894
TELKOM 3S               
1 41944U 17007A   21364.45537417 -.00000346  00000+0  00000+0 0  9991
2 41944   0.0205  48.8164 0001861 227.2245 104.9919  1.00268275 17790
INTELSAT 32E (IS-32E)   
1 41945U 17007B   21364.49505851 -.00000252  00000+0  00000+0 0  9999
2 41945   0.0181  31.3637 0000548 100.5395 102.2796  1.00270055 17890
ECHOSTAR 23             
1 42070U 17014A   21364.38060873 -.00000253  00000+0  00000+0 0  9996
2 42070   0.0036  90.7952 0001896 187.4770 249.8726  1.00269105 17598
